STARLINK-2303           
1 47981C 21024E   22090.14287207  .00020901  00000-0  14002-2 0   905
2 47981  53.0530 318.9980 0001522  56.4547 158.3608 15.06381914    16
STARLINK-2317           
1 47982C 21024F   22090.13491442 -.00008212  00000-0 -55033-3 0   906
2 47982  53.0525 249.0225 0001795  43.7096 232.9743 15.06398967    12
STARLINK-2308           
1 47985C 21024J   22090.19273159  .00009156  00000-0  61364-3 0   908
2 47985  53.0548 253.7770 0001265  66.2033 221.8077 15.06377792    10
STARLINK-2306           
1 47988C 21024M   22090.12724201  .00803681  00000-0  68456-2 0   906
2 47988  53.0543 270.4293 0001393  53.8022 104.8725 15.68097470    16
STARLINK-2305           
1 47989C 21024N   22090.19461510  .00009361  00000-0  62725-3 0   902
2 47989  53.0546 228.7575 0001351  83.2669 212.4687 15.06387912    15
STARLINK-2307           
1 47990C 21024P   22090.18367710 -.00006439  00000-0 -43155-3 0   901
2 47990  53.0523 228.8060 0001505  59.1601  72.1054 15.06394380    17
STARLINK-2279           
1 47991C 21024Q   22090.19426528  .00014309  00000-0  95869-3 0   908
2 47991  53.0542 243.7653 0001404  81.2447  50.0666 15.06385869    11
STARLINK-2229           
1 47992C 21024R   22090.19374972  .00009808  00000-0  65712-3 0   906
2 47992  53.0528 238.7716 0001556  55.6640   0.3300 15.06392350    14
STARLINK-2273           
1 47993C 21024S   22090.18212788  .00009852  00000-0  66016-3 0   909
2 47993  53.0527 278.8330 0001489  58.4180 209.4409 15.06385482    16
STARLINK-2290           
1 47994C 21024T   22090.18472171  .00013224  00000-0  88614-3 0   900
2 47994  53.0536 293.8111 0001388  62.8218 196.5866 15.06380835    10
STARLINK-2309           
1 47995C 21024U   22090.16652381  .00002482  00000-0  16634-3 0   909
2 47995  53.0529 258.9003 0001587  64.5472 213.7545 15.06386180    12
STARLINK-2260           
1 47996C 21024V   22090.17350801  .00003015  00000-0  83380-4 0   909
2 47996  53.0449 195.8815 0002475 142.9237 271.1697 15.36450770    17
STARLINK-2266           
1 47997C 21024W   22090.19116321  .00004656  00000-0  31200-3 0   904
2 47997  53.0519 293.7896 0001510  64.9403 329.4406 15.06387452    18
STARLINK-2296           
1 47998C 21024X   22090.15243620 -.00004618  00000-0 -30952-3 0   907
2 47998  53.0543 268.9516 0001519  58.8099 208.0426 15.06392134    18
STARLINK-2218           
1 47999C 21024Y   22090.18037313 -.00005232  00000-0 -35057-3 0   905
2 47999  53.0547 238.8352 0001533  66.0679 137.3773 15.06400221    14
STARLINK-2270           
1 48000C 21024Z   22090.17915642  .00008151  00000-0  54621-3 0   907
2 48000  53.0553 223.8248 0001750  36.6393 282.7039 15.06384343    16
STARLINK-2265           
1 48002C 21024AB  22090.19061523  .00013446  00000-0  90123-3 0   901
2 48002  53.0535 243.7751 0001534  67.6873 223.8746 15.06370871    17
STARLINK-2263           
1 48003C 21024AC  22090.12795063 -.00001199  00000-0 -80361-4 0   906
2 48003  53.0546 319.0645 0001649  59.3616 154.4955 15.06401074    10
STARLINK-2254           
1 48005C 21024AE  22090.18024369 -.00005845  00000-0 -39178-3 0   909
2 48005  53.0517 288.8289 0001736  59.4846 203.1211 15.06390167    17
STARLINK-2271           
1 48008C 21024AH  22090.19481296  .00018003  00000-0  12065-2 0   902
2 48008  53.0538 223.7495 0001467  69.0501 155.2678 15.06373494    14
STARLINK-2153           
1 48009C 21024AJ  22090.19339775  .00009557  00000-0  64029-3 0   909
2 48009  53.0556 298.7450 0001697  51.7792 207.1916 15.06391541    18
STARLINK-2226           
1 48010C 21024AK  22090.13159776  .00006699  00000-0  44882-3 0   905
2 48010  53.0534 319.0405 0001583  74.2447 139.4032 15.06394649    12
STARLINK-2272           
1 48011C 21024AL  22090.18545433  .00005260  00000-0  35247-3 0   908
2 48011  53.0534 298.8131 0001609  56.9319 324.0790 15.06391402    14
STARLINK-2216           
1 48012C 21024AM  22090.18009613  .00412520  00000-0  10932-1 0   907
2 48012  53.0556 264.8054 0002125  29.2247 252.2419 15.37359803    16
STARLINK-2243           
1 48013C 21024AN  22090.18683858 -.00005149  00000-0 -34513-3 0   907
2 48013  53.0530 283.8051 0001521  53.8245 212.0690 15.06391286    19
STARLINK-2283           
1 48014C 21024AP  22090.19217569  .00015546  00000-0  10650-2 0   906
2 48014  53.0527 248.0897 0001652  51.2344 237.7538 15.05561353    12
STARLINK-2284           
1 48016C 21024AR  22090.18784561 -.00005252  00000-0 -35190-3 0   900
2 48016  53.0540 233.7842 0001706  53.8248  77.6648 15.06401826    13
STARLINK-2239           
1 48017C 21024AS  22090.17157858  .00446046  00000-0  46947-2 0   902
2 48017  53.0539 275.1486 0007839 279.9732 348.7700 15.63158673    11
STARLINK-2282           
1 48018C 21024AT  22090.18002272  .00008642  00000-0  57912-3 0   904
2 48018  53.0537 303.8229 0001657  58.7587  85.2877 15.06384013    11
STARLINK-2285           
1 48019C 21024AU  22090.19485063  .00012324  00000-0  82578-3 0   907
2 48019  53.0518 293.7731 0001834  70.7948 323.5908 15.06383781    12
STARLINK-2294           
1 48020C 21024AV  22090.18023583  .00014666  00000-0  98281-3 0   902
2 48020  53.0540 248.8183 0001390  59.3744 228.3524 15.06378801    18
STARLINK-2301           
1 48021C 21024AW  22090.16249521  .00010458  00000-0  70082-3 0   907
2 48021  53.0526 253.9154 0001563  53.1706 225.6667 15.06381036    12
STARLINK-2298           
1 48022C 21024AX  22090.15331151  .00009639  00000-0  64573-3 0   905
2 48022  53.0542 313.9547 0001667  51.3592 172.7181 15.06393375    14
STARLINK-2292           
1 48023C 21024AY  22090.18386075  .00006959  00000-0  46627-3 0   906
2 48023  53.0543 313.8130 0001733  66.7819 237.9443 15.06392646    14
STARLINK-2278           
1 48026C 21024BB  22090.14652666  .00002512  00000-0  16833-3 0   904
2 48026  53.0520 318.9769 0001585  61.3495 153.3065 15.06392271    17
STARLINK-2300           
1 48027C 21024BC  22090.18090036  .00015199  00000-0  10184-2 0   903
2 48027  53.0519 293.8315 0001496  69.7326 188.9563 15.06382719    13
STARLINK-2264           
1 48028C 21024BD  22090.12986889 -.00008017  00000-0 -53725-3 0   900
2 48028  53.0527 249.0613 0001447  60.4163 214.0059 15.06399360    11
STARLINK-2299           
1 48029C 21024BE  22090.14617118 -.00003544  00000-0 -23746-3 0   909
2 48029  53.0540 313.9944 0001729  50.8895 169.3157 15.06400157    11
STARLINK-2268           
1 48030C 21024BF  22090.18910381 -.00007105  00000-0 -47615-3 0   901
2 48030  53.0544 318.7781 0001654  64.0488 241.6206 15.06394737    16
STARLINK-2267           
1 48031C 21024BG  22090.18055385  .00003483  00000-0  23345-3 0   903
2 48031  53.0531 203.8134 0001735  48.6804   3.1222 15.06385325    11
STARLINK-2286           
1 48033C 21024BJ  22090.13419058  .00011681  00000-0  78265-3 0   901
2 48033  53.0619 314.0024 0001468  65.4148 149.8274 15.06387317    12
STARLINK-2288           
1 48034C 21024BK  22090.15433610 -.00002368  00000-0 -15870-3 0   901
2 48034  53.0537 313.9491 0001632  54.8519 169.6844 15.06394115    12
STARLINK-2295           
1 48036C 21024BM  22090.17641154  .00004400  00000-0  29483-3 0   901
2 48036  53.0541 313.8524 0001689  57.5114 246.8003 15.06393532    15
STARLINK-2048           
1 48092C 21027A   22090.12117418 -.00002643  00000-0 -17708-3 0   908
2 48092  53.0553  79.0968 0001634  67.2390  54.9774 15.06396996    17
STARLINK-2404           
1 48093C 21027B   22090.16127940 -.00008167  00000-0 -54715-3 0   900
2 48093  53.0522 143.9215 0001539  65.9027  76.4171 15.06409000    17
STARLINK-2412           
1 48094C 21027C   22090.19403735 -.00002062  00000-0 -13818-3 0   900
2 48094  53.0535 153.7729 0001746  63.9523  56.0116 15.06397254    10
STARLINK-2414           
1 48095C 21027D   22090.19013065 -.00006319  00000-0 -42340-3 0   905
2 48095  53.0522 153.7916 0001523  58.1864   0.5496 15.06401741    14
STARLINK-2417           
1 48096C 21027E   22090.17988056 -.00003688  00000-0 -24714-3 0   906
2 48096  53.0518 153.8391 0001572  57.7009  85.4268 15.06398750    12
STARLINK-2418           
1 48097C 21027F   22090.18489794  .00002758  00000-0  18482-3 0   903
2 48097  53.0545 133.8189 0001512  73.6011 206.7432 15.06391810    11
STARLINK-2421           
1 48098C 21027G   22090.19390396 -.00001741  00000-0 -11668-3 0   906
2 48098  53.0531 143.7776 0001555  64.0465  30.1677 15.06394822    19
STARLINK-2428           
1 48099C 21027H   22090.19114443  .00012890  00000-0  86371-3 0   902
2 48099  53.0542 153.7852 0001456  60.1118  84.1299 15.06382545    18
STARLINK-2430           
1 48100C 21027J   22090.17676181  .00001589  00000-0  10645-3 0   909
2 48100  53.0531 133.8499 0001698  59.0823 217.1077 15.06393909    11
STARLINK-2436           
1 48101C 21027K   22090.17828148 -.00012282  00000-0 -82291-3 0   902
2 48101  53.0536 143.8454 0001460  58.8059 315.7684 15.06410750    17
STARLINK-2437           
1 48102C 21027L   22090.16909095 -.00001387  00000-0 -92909-4 0   905
2 48102  53.0542 133.8792 0001574  59.8778  34.6497 15.06406381    18
STARLINK-2438           
1 48103C 21027M   22090.17673773  .00003235  00000-0  21675-3 0   901
2 48103  53.0526 133.8329 0001462  60.1737  35.9004 15.06393823    17
STARLINK-2439           
1 48104C 21027N   22090.17432435  .00008413  00000-0  56369-3 0   901
2 48104  53.0527 138.8666 0001400  68.7439 306.7089 15.06391019    10
STARLINK-2440           
1 48105C 21027P   22090.15382714 -.00016812  00000-0 -11265-2 0   903
2 48105  53.0553  83.9498 0001786  45.7297   1.0433 15.06412756    17
STARLINK-2442           
1 48106C 21027Q   22090.18158686  .00009229  00000-0  61843-3 0   906
2 48106  53.0538 133.8208 0001473  61.3104 226.1793 15.06386209    11
STARLINK-2443           
1 48107C 21027R   22090.16126184 -.00017424  00000-0 -11676-2 0   909
2 48107  53.0539 133.9096 0001418  65.2238  26.9175 15.06410467    13
STARLINK-2444           
1 48108C 21027S   22090.16704259 -.00011718  00000-0 -78528-3 0   905
2 48108  53.0531 143.8935 0001491  68.3703 200.0744 15.06403478    11
